STARLINK-11455 [DTC]    
1 62463U 24254B   25025.84824800  .00001065  00000+0  89824-5 0  9993
2 62463  43.0013 163.5323 0001499 280.9878  79.0823 15.77859442  5233
STARLINK-11459 [DTC]    
1 62464U 24254C   25025.85312375  .00001637  00000+0  12276-4 0  9995
2 62464  42.9996 163.5728 0002683 257.0140 103.0431 15.77859024  5222
STARLINK-11178 [DTC]    
1 62465U 24254D   25025.84337165 -.00000029  00000+0  26923-5 0  9999
2 62465  42.9999 163.4901 0000849 271.2925  88.7848 15.77857533  5076
STARLINK-11506 [DTC]    
1 62466U 24254E   25025.91668981  .00019527  00000+0  11483-3 0  9996
2 62466  43.0000 162.9758 0001785 276.1278 168.6760 15.77852862  5128
STARLINK-11486 [DTC]    
1 62467U 24254F   25025.91668981 -.00034529  00000+0 -19602-3 0  9999
2 62467  43.0000 162.9060 0001599 269.7913 202.7395 15.77893636  5287
STARLINK-11511 [DTC]    
1 62468U 24254G   25025.91668981  .00005513  00000+0  34499-4 0  9991
2 62468  42.9961 162.8349 0001834 270.1621 230.1285 15.77873281  5282
STARLINK-11505 [DTC]    
1 62469U 24254H   25025.91668981 -.00049694  00000+0 -28371-3 0  9993
2 62469  42.9952 162.7653 0002410 267.8920 260.1376 15.77902928  5270
STARLINK-11497 [DTC]    
1 62470U 24254J   25025.91668981 -.01113913  00000+0 -65145-2 0  9991
2 62470  42.9926 162.7031 0001579 280.1310 272.6691 15.79878634  5286
STARLINK-11477 [DTC]    
1 62471U 24254K   25025.50179423 -.00219341  00000+0 -97463-3 0  9995
2 62471  42.9923 165.2104 0006907 299.3637  60.6545 15.83852192  5174
STARLINK-11500 [DTC]    
1 62472U 24254L   25025.75337609  .00030235  00000+0  13000-3 0  9991
2 62472  42.9918 163.6535 0001824 272.7298  87.3366 15.84424853  4693
STARLINK-11464 [DTC]    
1 62473U 24254M   25025.75303740 -.00010368  00000+0 -41727-4 0  9996
2 62473  42.9919 163.6518 0001400 257.8726 102.1990 15.84378263  5228
STARLINK-11502 [DTC]    
1 62474U 24254N   25025.75264464  .00030872  00000+0  13248-3 0  9992
2 62474  42.9922 163.6517 0002061 262.9525  97.1113 15.84456520  5223
STARLINK-32657          
1 62475U 24254P   25025.91668981 -.00742559  00000+0 -13445-1 0  9994
2 62475  42.9995 164.2143 0001627 274.3305  32.1563 15.51107433  5123
STARLINK-32734          
1 62476U 24254Q   25025.91668981 -.00702161  00000+0 -12833-1 0  9990
2 62476  42.9994 164.2092 0001530 284.9449  23.4579 15.51101508  5289
STARLINK-32733          
1 62477U 24254R   25025.91668981 -.00701948  00000+0 -12829-1 0  9998
2 62477  42.9995 164.2050 0001514 285.5867  24.7332 15.51101094  5289
STARLINK-32707          
1 62478U 24254S   25025.91668981 -.00702580  00000+0 -12841-1 0  9996
2 62478  42.9995 164.1941 0001547 284.6114  29.5414 15.51102123  5287
STARLINK-32705          
1 62479U 24254T   25025.91668981 -.00750807  00000+0 -13605-1 0  9991
2 62479  42.9995 164.1896 0001547 275.5356  40.5346 15.51111134  5126
STARLINK-32743          
1 62480U 24254U   25025.91668981 -.00702266  00000+0 -12835-1 0  9993
2 62480  42.9994 164.1995 0001540 284.9614  27.2749 15.51101618  5283
STARLINK-32753          
1 62481U 24254V   25025.91668981 -.00702682  00000+0 -12843-1 0  9995
2 62481  42.9995 164.1847 0001538 284.5410  33.4457 15.51102254  5280
STARLINK-32699          
1 62482U 24254W   25025.91668981 -.00750586  00000+0 -13601-1 0  9995
2 62482  42.9996 164.1799 0001629 274.1996  45.7053 15.51109882  5128
THURAYA-4               
1 62483U 25001A   25021.75000000 -.00000297  00000+0  00000+0 0  9990
2 62483  20.3998 318.6966 7658322 181.7701 306.5259  1.26418201    19
SHIJIAN-25 (SJ-25)      
1 62485U 25002A   25025.96791368 -.00000357  00000+0  00000+0 0  9991
2 62485  10.2296  43.6051 0056414 183.4768   6.9561  1.00272383   286
STARLINK-32713          
1 62487U 25003A   25025.91668981 -.01422736  00000+0 -19184-1 0  9999
2 62487  43.0009  77.8273 0001273 271.9436 287.3879 15.59856732  4104
STARLINK-32732          
1 62488U 25003B   25025.91668981 -.01416448  00000+0 -19093-1 0  9992
2 62488  43.0009  77.8215 0001230 273.2913 287.9587 15.59852614  4106
STARLINK-32328          
1 62489U 25003C   25025.91668981 -.01416734  00000+0 -19097-1 0  9995
2 62489  43.0009  77.8118 0001251 272.2377 292.8465 15.59852817  4267
STARLINK-32332          
1 62490U 25003D   25025.91668981 -.01417560  00000+0 -19109-1 0  9999
2 62490  43.0010  77.8169 0001239 272.0466 291.1202 15.59853461  4267
STARLINK-32717          
1 62491U 25003E   25025.91668981 -.01415536  00000+0 -19080-1 0  9999
2 62491  43.0009  77.8067 0001245 272.1596 294.8426 15.59851568  4269
STARLINK-32757          
1 62492U 25003F   25025.91668981 -.01415883  00000+0 -19085-1 0  9990
2 62492  43.0009  77.8019 0001249 271.6241 297.2951 15.59851816  4101
FALCON 9 R/B            
1 62484U 25001B   25024.15663332  .00000055  00000+0  20399-2 0  9998
2 62484  26.6957 317.3320 7974052 184.2121 157.9418  1.41661072   286
CZ-3B R/B               
1 62486U 25002B   25025.87827276  .00033850 -11067-6  62147-3 0  9990
2 62486  28.5374  37.0362 7355958 190.6809 134.1410  2.23473482   439
